293P/Spacewatch,e,9.0608,78.3579,41.0018,3.637285,0.1420817,0.41961213,245.6209,09/15.0/2025,2000,g 14.5,4.0
# From MPC184419
294P/LINEAR,e,17.7429,309.6000,237.5867,3.190164,0.1729755,0.60094643,6.0207,09/15.0/2025,2000,g 15.5,4.0
# From MPEC 2022-K19
295P/LINEAR,e,21.0864,7.3785,73.0543,5.297939,0.0808246,0.61761556,334.8841,09/15.0/2025,2000,g 12.0,4.0
# From MPEC 2021-N06
296P/Garradd,e,25.3603,263.5069,350.4024,3.467425,0.1526488,0.48669664,275.8385,09/15.0/2025,2000,g 14.0,4.0
# From MPC102956
297P/Beshore,e,11.2316,92.1740,142.5174,3.572575,0.1459594,0.28168900,247.8757,09/15.0/2025,2000,g 15.0,4.0
# From MPC114609
298P/Christensen,e,7.8727,52.7838,100.6271,3.587970,0.1450210,0.38701884,266.0702,09/15.0/2025,2000,g 15.0,4.0
# From MPEC 2025-R69
299P/Catalina-PANSTARRS,e,10.4689,271.5802,323.5934,4.388265,0.1072173,0.28093655,53.9401,09/15.0/2025,2000,g 11.5,4.0
# From MPEC 2023-VM5
300P/Catalina,e,5.6765,95.6211,222.8742,2.696092,0.2226394,0.69225578,197.7012,09/15.0/2025,2000,g 16.0,4.0
# From MPC 89014
301P/LINEAR-NEAT,e,10.3287,351.0624,193.4201,5.753028,0.0714265,0.58633794,290.3658,09/15.0/2025,2000,g 13.0,4.0
# From MPEC 2025-R69
302P/Lemmon-PANSTARRS,e,6.0357,121.7167,208.6181,4.266569,0.1118371,0.22921018,21.2091,09/15.0/2025,2000,g 12.5,4.0
# From MPEC 2025-R69
303P/NEAT,e,7.0163,347.9076,357.0579,5.039114,0.0871310,0.51017634,346.2395,09/15.0/2025,2000,g 13.5,4.0
# From MPEC 2022-K19
304P/Ory,e,2.6056,58.9360,335.2858,3.149336,0.1763500,0.60081061,327.5147,09/15.0/2025,2000,g 16.5,4.0
# From MPC182890
305P/Skiff,e,11.6700,240.0890,147.3896,4.634331,0.0987924,0.69405861,29.8233,09/15.0/2025,2000,g 18.0,4.0
# From MPEC 2025-R69
306P/LINEAR,e,8.3018,341.3400,0.9105,3.123975,0.1785018,0.59252040,7.9175,09/15.0/2025,2000,g 19.0,4.0
# From MPC 92278
307P/LINEAR,e,4.4343,158.1023,222.2617,5.788107,0.0707782,0.67489866,276.8754,09/15.0/2025,2000,g 15.0,4.0
# From MPEC 2022-C56
308P/Lagerkvist-Carsenty,e,4.8517,63.1001,333.7638,6.601788,0.0581048,0.36400086,219.3749,09/15.0/2025,2000,g 13.0,2.0
# From MPC184419
309P/LINEAR,e,17.0185,10.1390,49.9260,4.374918,0.1077083,0.61817241,57.6312,09/15.0/2025,2000,g 15.0,4.0
# From MPC182891
310P/Hill,e,13.1200,8.8837,31.5163,4.180815,0.1152956,0.42200034,79.8915,09/15.0/2025,2000,g 13.5,4.0
# From MPC184419
311P/PANSTARRS,e,4.9714,279.1680,144.3098,2.188778,0.3043698,0.11545064,189.3398,09/15.0/2025,2000,g 17.0,4.0
# From MPEC 2024-NE4
312P/NEAT,e,19.7456,144.6309,207.6934,3.472682,0.1523023,0.42659879,276.7638,09/15.0/2025,2000,g 16.0,4.0
# From MPEC 2025-R69
313P/Gibbs,e,10.9811,105.9256,254.9955,3.162905,0.1752164,0.23437891,346.1974,09/15.0/2025,2000,g 15.0,4.0
# From MPC105243
314P/Montani,e,3.9921,267.6236,213.8754,7.248579,0.0505039,0.41870552,164.5145,09/15.0/2025,2000,g  9.5,4.0
# From MPEC 2025-R69
315P/LONEOS,e,17.7360,68.6303,65.9397,4.935514,0.0898888,0.52217674,288.7654,09/15.0/2025,2000,g 11.0,4.0
# From MPC182891
316P/LONEOS-Christensen,e,9.8686,245.8502,186.6970,4.401989,0.1067163,0.15583613,37.1310,09/15.0/2025,2000,g 13.5,4.0
# From MPEC 2020-C98
317P/WISE,e,11.9747,275.4720,334.8885,2.959668,0.1935707,0.57204111,351.1222,09/15.0/2025,2000,g 17.5,4.0
# From MPC102103
318P/McNaught-Hartley,e,17.8614,35.6171,313.2902,7.515725,0.0478352,0.67305608,172.9880,09/15.0/2025,2000,g  8.5,6.0
# From MPC184420
319P/Catalina-McNaught,e,15.0978,111.3667,203.5812,3.562200,0.1465975,0.66657538,185.3800,09/15.0/2025,2000,g 15.0,4.0
# From MPC 96281
320P/McNaught,e,4.9028,295.9401,0.7582,3.096057,0.1809217,0.68495047,308.2859,09/15.0/2025,2000,g 20.5,4.0
# From MPC105243
321P/SOHO,e,20.0552,165.0263,172.7396,2.422033,0.2614773,0.98100405,0.0000,08/03.2373/2027,2000,g 20.0,4.0
# From MPC102103
322P/SOHO,e,11.4432,351.3062,57.1153,2.508686,0.2480474,0.97991208,0.0000,08/11.5275/2027,2000,g 19.0,4.0
# From MPC182891
323P/SOHO,e,5.2170,323.9285,353.3374,2.440377,0.2585346,0.98347544,0.0000,03/14.2401/2025,2000,g 20.0,4.0
# From MPEC 2024-F21
323P-B/SOHO,e,5.4625,323.4647,353.9688,2.890172,0.2005943,0.98613692,0.0000,12/16.2352/2025,2000,g 26.0,4.0
# From MPEC 2024-F21
323P-C/SOHO,e,5.3423,324.1721,353.2222,2.612416,0.2334214,0.98478662,0.0000,04/07.1073/2025,2000,g 27.0,4.0
# From MPEC 2021-W31
324P/LaSagra,e,21.3994,270.5686,57.3916,3.097470,0.1807979,0.15276024,288.6423,09/15.0/2025,2000,g 13.0,4.0
# From MPEC 2024-LE0
325P/Yang-Gao,e,16.8426,256.8615,344.8925,3.550272,0.1473369,0.58682728,187.3718,09/15.0/2025,2000,g 14.0,4.0
# From MPEC 2024-LE0
326P/Hill,e,2.4738,99.7612,277.9256,4.060479,0.1204587,0.32060638,75.5360,09/15.0/2025,2000,g 13.5,4.0
# From MPEC 2024-M41
327P/VanNess,e,36.2274,173.9989,185.0371,3.563172,0.1465375,0.56243734,162.5510,09/15.0/2025,2000,g 16.0,4.0
# From MPEC 2024-YC7
328P/LONEOS-Tucker,e,17.6889,341.5198,30.6540,4.188517,0.1149777,0.55322773,47.6116,09/15.0/2025,2000,g 14.5,4.0
# From MPC101101
329P/LINEAR-Catalina,e,21.7188,87.6874,343.6115,5.181272,0.0835698,0.67887358,298.1044,09/15.0/2025,2000,g 13.5,4.0
# From MPEC 2023-J29
330P/Catalina,e,15.7417,293.0850,188.8444,6.614529,0.0579370,0.55070395,191.2601,09/15.0/2025,2000,g 12.0,4.0
# From MPEC 2025-R69
331P/Gibbs,e,9.7409,216.7419,185.6955,3.002827,0.1894125,0.04142883,340.8576,09/15.0/2025,2000,g 12.0,4.0
# From MPEC 2016-K18
332P/Ikeya-Murakami,e,9.3863,3.7549,152.2998,3.086005,0.1818064,0.48992311,270.6114,09/15.0/2025,2000,g 18.0,4.0
# From MPEC 2016-K18
332P-A/Ikeya-Murakami,e,9.3860,152.3163,3.7396,3.085983,0.1818084,0.48993104,270.6102,09/15.0/2025,2000,g 18.0,4.0
# From MPEC 2016-EI8
332P-B/Ikeya-Murakami,e,9.3805,3.8028,152.3711,3.082329,0.1821317,0.48970701,359.9699,03/17.0/2016,2000,g 19.0,4.0
# From MPEC 2016-K18
332P-C/Ikeya-Murakami,e,9.3850,152.3076,3.7400,3.085949,0.1818114,0.48993656,270.6288,09/15.0/2025,2000,g 16.5,4.0
# From MPEC 2016-ED0
332P-D/Ikeya-Murakami,e,9.3761,3.7923,152.4393,3.081138,0.1822373,0.48977814,359.9486,03/17.0/2016,2000,g 19.0,4.0
# From MPEC 2016-ED0
332P-E/Ikeya-Murakami,e,9.3774,3.8228,152.2825,3.079877,0.1823493,0.48922008,359.9889,03/17.0/2016,2000,g 21.0,4.0
# From MPEC 2016-ED0
332P-F/Ikeya-Murakami,e,9.5293,3.4757,152.8203,3.163214,0.1751908,0.49918860,359.8501,03/17.0/2016,2000,g 21.0,4.0
# From MPEC 2016-ED0
332P-G/Ikeya-Murakami,e,9.2523,3.6955,154.4000,3.050519,0.1849880,0.49200362,359.9006,03/19.0/2016,2000,g 19.0,4.0
# From MPC100285
332P-H/Ikeya-Murakami,e,9.3856,152.3082,3.7398,3.086128,0.1817955,0.48997261,270.5396,09/15.0/2025,2000,g 19.0,4.0
# From MPEC 2016-ED0
332P-I/Ikeya-Murakami,e,9.3791,3.8048,152.3297,3.081767,0.1821815,0.48955490,359.9360,03/17.0/2016,2000,g 20.5,2.0
# From MPEC 2016-EI8
332P-J/Ikeya-Murakami,e,9.4296,3.6729,152.7712,3.115165,0.1792596,0.49429435,359.8613,03/17.0/2016,2000,g 22.5,2.0
# From MPEC 2025-R69
333P/LINEAR,e,132.0235,115.7056,26.0275,4.221019,0.1136523,0.73628804,32.9250,09/15.0/2025,2000,g 15.0,4.0
# From MPEC 2023-J29
334P/NEAT,e,20.3631,90.3309,90.0883,6.823367,0.0552976,0.35217315,167.2273,09/15.0/2025,2000,g 10.5,4.0
# From MPEC 2023-M14
335P/Gibbs,e,7.2988,330.7878,162.3282,3.577078,0.1456839,0.54695572,164.5235,09/15.0/2025,2000,g 17.0,4.0
# From MPC105244
336P/McNaught,e,17.9019,298.1604,308.8132,5.031162,0.0873377,0.44752220,275.1804,09/15.0/2025,2000,g 13.5,4.0
# From MPEC 2024-A43
337P/WISE,e,17.1522,101.9755,166.4268,3.366724,0.1595485,0.47210065,189.4503,09/15.0/2025,2000,g 17.0,4.0
# From MPC182891
338P/McNaught,e,25.3781,9.7083,4.6394,3.895135,0.1282095,0.41284857,52.2738,09/15.0/2025,2000,g 12.0,4.0
# From MPC101101
339P/Gibbs,e,5.7354,27.4529,172.6720,3.698225,0.1385843,0.63588970,103.3795,09/15.0/2025,2000,g 17.0,4.0
# From MPC133426
340P/Boattini,e,2.0790,291.6600,36.0619,4.246304,0.1126387,0.27985612,1.8869,09/15.0/2025,2000,g 13.0,4.0
# From MPEC 2023-J29
341P/Gibbs,e,3.7965,29.9522,312.3669,4.284408,0.1111393,0.41497997,16.1463,09/15.0/2025,2000,g 12.5,4.0
# From MPC101101
342P/SOHO,e,11.6876,73.3009,27.6604,3.040623,0.1858918,0.98298887,0.0000,02/07.7232/2027,2000,g 20.0,4.0
# From MPEC 2024-PC5
343P/NEAT-LONEOS,e,5.5976,257.0546,137.6094,5.458095,0.0772934,0.58470842,243.1402,09/15.0/2025,2000,g 14.0,4.0
# From MPEC 2023-J29
344P/Read,e,3.4997,273.1017,140.6405,4.854251,0.0921554,0.42370294,297.5259,09/15.0/2025,2000,g 13.0,4.0
# From MPEC 2024-TP3
345P/LINEAR,e,2.7279,154.4969,196.8540,4.033787,0.1216563,0.22146835,46.1769,09/15.0/2025,2000,g 12.0,4.0
# From MPEC 2025-R69
346P/Catalina,e,22.2193,102.4579,336.0911,4.467141,0.1043902,0.50389366,326.5656,09/15.0/2025,2000,g 14.0,4.0
# From MPEC 2024-RQ6
347P/PANSTARRS,e,11.7655,260.9869,98.0605,3.599143,0.1443462,0.38704557,113.8645,09/15.0/2025,2000,g 15.0,4.0
# From MPEC 2022-ED3
348P/PANSTARRS,e,17.7440,312.9111,135.7918,3.151416,0.1761755,0.30752778,230.6539,09/15.0/2025,2000,g 14.0,4.0
# From MPEC 2024-LE0
349P/Lemmon,e,5.4895,331.7383,255.7292,3.577644,0.1456493,0.29861157,69.3443,09/15.0/2025,2000,g 14.0,4.0
# From MPC184420
350P/McNaught,e,7.3655,65.2953,140.0687,4.081108,0.1195465,0.09478715,338.0650,09/15.0/2025,2000,g 14.0,4.0
# From MPEC 2025-R69
351P/Wiegert-PANSTARRS,e,12.7785,283.3842,352.5502,4.440162,0.1053430,0.29465965,18.2143,09/15.0/2025,2000,g 12.5,4.0
# From MPEC 2023-J29
352P/Skiff,e,21.0009,28.0610,309.3565,6.656301,0.0573924,0.61577808,172.8240,09/15.0/2025,2000,g 11.5,4.0
# From MPEC 2025-R69
353P/McNaught,e,28.4096,121.4576,230.5351,4.170566,0.1157208,0.46970928,326.5090,09/15.0/2025,2000,g 14.5,4.0
# From MPEC 2024-EF7
354P/LINEAR,e,5.2510,320.0562,132.9586,2.290304,0.2843572,0.12446942,199.5156,09/15.0/2025,2000,g 15.5,4.0
# From MPEC 2023-CD7
355P/LINEAR-NEAT,e,11.0461,51.4220,336.2534,3.466795,0.1526905,0.50792216,81.1999,09/15.0/2025,2000,g 15.5,2.0
# From MPEC 2025-R69
356P/WISE,e,9.6394,160.7452,226.2815,4.151641,0.1165130,0.35579724,328.4958,09/15.0/2025,2000,g 14.0,4.0
# From MPC114609
357P/Hill,e,6.3121,44.5634,1.5199,4.454621,0.1048306,0.43596669,278.7844,09/15.0/2025,2000,g 15.5,4.0
# From MPEC 2024-EF7
